STARLINK-35760          
1 66274U 25247K   25323.25002315 -.00061393  00000+0 -11040-2 0  9999
2 66274  53.1595 348.4400 0001287  70.3044  97.5577 15.49319371  3842
STARLINK-35752          
1 66275U 25247L   25323.25002315 -.00057210  00000+0 -10278-2 0  9995
2 66275  53.1595 348.4362 0001189  68.5057 101.2727 15.49317077  3845
STARLINK-35742          
1 66276U 25247M   25323.25002315 -.00065101  00000+0 -11717-2 0  9993
2 66276  53.1595 348.4322 0001284  68.4028 103.2941 15.49321187  4168
STARLINK-35708          
1 66277U 25247N   25323.25002315 -.00059613  00000+0 -10716-2 0  9993
2 66277  53.1598 348.4278 0001208  72.3367 101.2752 15.49318545  4160
STARLINK-35713          
1 66278U 25247P   25323.25002315 -.00088718  00000+0 -16040-2 0  9998
2 66278  53.1594 348.4197 0001150  76.1608 101.2897 15.49331278  4161
STARLINK-35724          
1 66279U 25247Q   25323.25002315 -.00057961  00000+0 -10415-2 0  9995
2 66279  53.1595 348.4156 0001332  67.9550 111.4071 15.49317817  3792
STARLINK-35726          
1 66280U 25247R   25323.25002315 -.00072205  00000+0 -13015-2 0  9994
2 66280  53.1595 348.4237 0001309  83.9342  91.5946 15.49324449  3849
STARLINK-35727          
1 66281U 25247S   25323.25002315 -.00059433  00000+0 -10683-2 0  9991
2 66281  53.1597 348.4115 0001161  70.5286 110.7510 15.49318499  3841
STARLINK-35776          
1 66282U 25247T   25323.25002315 -.00062189  00000+0 -11186-2 0  9993
2 66282  53.1595 348.4075 0001219  67.4023 115.7961 15.49319462  3849
STARLINK-35774          
1 66283U 25247U   25323.25002315 -.00059124  00000+0 -10627-2 0  9998
2 66283  53.1595 348.4039 0001161  62.0864 123.0263 15.49318738  3842
STARLINK-35830          
1 66284U 25247V   25323.25002315 -.00060610  00000+0 -10897-2 0  9990
2 66284  53.1596 348.3995 0001242  68.9220 118.1072 15.49319718  3847
STARLINK-35819          
1 66285U 25247W   25323.25002315 -.00064753  00000+0 -11653-2 0  9994
2 66285  53.1595 348.3956 0001285  71.5978 117.3491 15.49321804  3790
