CCSDS_OMM_VERS = 2.0
CREATION_DATE  = 
ORIGINATOR     = 

OBJECT_NAME    = STARLINK-35760
OBJECT_ID      = 2025-247K
CENTER_NAME    = EARTH
REF_FRAME      = TEME
TIME_SYSTEM    = UTC
MEAN_ELEMENT_THEORY = SGP/SGP4

EPOCH          = 2025-11-19T06:00:02.000160
MEAN_MOTION    = 15.49319371
ECCENTRICITY   = .00012875
INCLINATION    = 53.1595
RA_OF_ASC_NODE = 348.4400
ARG_OF_PERICENTER = 70.3044
MEAN_ANOMALY   = 97.5577

EPHEMERIS_TYPE = 0
CLASSIFICATION_TYPE = U
NORAD_CAT_ID   = 66274
ELEMENT_SET_NO = 999
REV_AT_EPOCH   = 384
BSTAR          = -.11040304E-2
MEAN_MOTION_DOT = -.61393E-3
MEAN_MOTION_DDOT = 0

CCSDS_OMM_VERS = 2.0
CREATION_DATE  = 
ORIGINATOR     = 

OBJECT_NAME    = STARLINK-35752
OBJECT_ID      = 2025-247L
CENTER_NAME    = EARTH
REF_FRAME      = TEME
TIME_SYSTEM    = UTC
MEAN_ELEMENT_THEORY = SGP/SGP4

EPOCH          = 2025-11-19T06:00:02.000160
MEAN_MOTION    = 15.49317077
ECCENTRICITY   = .00011899
INCLINATION    = 53.1595
RA_OF_ASC_NODE = 348.4362
ARG_OF_PERICENTER = 68.5057
MEAN_ANOMALY   = 101.2727

EPHEMERIS_TYPE = 0
CLASSIFICATION_TYPE = U
NORAD_CAT_ID   = 66275
ELEMENT_SET_NO = 999
REV_AT_EPOCH   = 384
BSTAR          = -.10277983E-2
MEAN_MOTION_DOT = -.5721E-3
MEAN_MOTION_DDOT = 0

CCSDS_OMM_VERS = 2.0
CREATION_DATE  = 
ORIGINATOR     = 

OBJECT_NAME    = STARLINK-35742
OBJECT_ID      = 2025-247M
CENTER_NAME    = EARTH
REF_FRAME      = TEME
TIME_SYSTEM    = UTC
MEAN_ELEMENT_THEORY = SGP/SGP4

EPOCH          = 2025-11-19T06:00:02.000160
MEAN_MOTION    = 15.49321187
ECCENTRICITY   = .00012844
INCLINATION    = 53.1595
RA_OF_ASC_NODE = 348.4322
ARG_OF_PERICENTER = 68.4028
MEAN_ANOMALY   = 103.2941

EPHEMERIS_TYPE = 0
CLASSIFICATION_TYPE = U
NORAD_CAT_ID   = 66276
ELEMENT_SET_NO = 999
REV_AT_EPOCH   = 416
BSTAR          = -.11716818E-2
MEAN_MOTION_DOT = -.65101E-3
MEAN_MOTION_DDOT = 0

CCSDS_OMM_VERS = 2.0
CREATION_DATE  = 
ORIGINATOR     = 

OBJECT_NAME    = STARLINK-35708
OBJECT_ID      = 2025-247N
CENTER_NAME    = EARTH
REF_FRAME      = TEME
TIME_SYSTEM    = UTC
MEAN_ELEMENT_THEORY = SGP/SGP4

EPOCH          = 2025-11-19T06:00:02.000160
MEAN_MOTION    = 15.49318545
ECCENTRICITY   = .00012085
INCLINATION    = 53.1598
RA_OF_ASC_NODE = 348.4278
ARG_OF_PERICENTER = 72.3367
MEAN_ANOMALY   = 101.2752

EPHEMERIS_TYPE = 0
CLASSIFICATION_TYPE = U
NORAD_CAT_ID   = 66277
ELEMENT_SET_NO = 999
REV_AT_EPOCH   = 416
BSTAR          = -.10715932E-2
MEAN_MOTION_DOT = -.59613E-3
MEAN_MOTION_DDOT = 0

CCSDS_OMM_VERS = 2.0
CREATION_DATE  = 
ORIGINATOR     = 

OBJECT_NAME    = STARLINK-35713
OBJECT_ID      = 2025-247P
CENTER_NAME    = EARTH
REF_FRAME      = TEME
TIME_SYSTEM    = UTC
MEAN_ELEMENT_THEORY = SGP/SGP4

EPOCH          = 2025-11-19T06:00:02.000160
MEAN_MOTION    = 15.49331278
ECCENTRICITY   = .00011504
INCLINATION    = 53.1594
RA_OF_ASC_NODE = 348.4197
ARG_OF_PERICENTER = 76.1608
MEAN_ANOMALY   = 101.2897

EPHEMERIS_TYPE = 0
CLASSIFICATION_TYPE = U
NORAD_CAT_ID   = 66278
ELEMENT_SET_NO = 999
REV_AT_EPOCH   = 416
BSTAR          = -.16039632E-2
MEAN_MOTION_DOT = -.88718E-3
MEAN_MOTION_DDOT = 0

CCSDS_OMM_VERS = 2.0
CREATION_DATE  = 
ORIGINATOR     = 

OBJECT_NAME    = STARLINK-35724
OBJECT_ID      = 2025-247Q
CENTER_NAME    = EARTH
REF_FRAME      = TEME
TIME_SYSTEM    = UTC
MEAN_ELEMENT_THEORY = SGP/SGP4

EPOCH          = 2025-11-19T06:00:02.000160
MEAN_MOTION    = 15.49317817
ECCENTRICITY   = .0001332
INCLINATION    = 53.1595
RA_OF_ASC_NODE = 348.4156
ARG_OF_PERICENTER = 67.9550
MEAN_ANOMALY   = 111.4071

EPHEMERIS_TYPE = 0
CLASSIFICATION_TYPE = U
NORAD_CAT_ID   = 66279
ELEMENT_SET_NO = 999
REV_AT_EPOCH   = 379
BSTAR          = -.10414571E-2
MEAN_MOTION_DOT = -.57961E-3
MEAN_MOTION_DDOT = 0

CCSDS_OMM_VERS = 2.0
CREATION_DATE  = 
ORIGINATOR     = 

OBJECT_NAME    = STARLINK-35726
OBJECT_ID      = 2025-247R
CENTER_NAME    = EARTH
REF_FRAME      = TEME
TIME_SYSTEM    = UTC
MEAN_ELEMENT_THEORY = SGP/SGP4

EPOCH          = 2025-11-19T06:00:02.000160
MEAN_MOTION    = 15.49324449
ECCENTRICITY   = .00013097
INCLINATION    = 53.1595
RA_OF_ASC_NODE = 348.4237
ARG_OF_PERICENTER = 83.9342
MEAN_ANOMALY   = 91.5946

EPHEMERIS_TYPE = 0
CLASSIFICATION_TYPE = U
NORAD_CAT_ID   = 66280
ELEMENT_SET_NO = 999
REV_AT_EPOCH   = 384
BSTAR          = -.13014571E-2
MEAN_MOTION_DOT = -.72205E-3
MEAN_MOTION_DDOT = 0

CCSDS_OMM_VERS = 2.0
CREATION_DATE  = 
ORIGINATOR     = 

OBJECT_NAME    = STARLINK-35727
OBJECT_ID      = 2025-247S
CENTER_NAME    = EARTH
REF_FRAME      = TEME
TIME_SYSTEM    = UTC
MEAN_ELEMENT_THEORY = SGP/SGP4

EPOCH          = 2025-11-19T06:00:02.000160
MEAN_MOTION    = 15.49318499
ECCENTRICITY   = .0001161
INCLINATION    = 53.1597
RA_OF_ASC_NODE = 348.4115
ARG_OF_PERICENTER = 70.5286
MEAN_ANOMALY   = 110.7510

EPHEMERIS_TYPE = 0
CLASSIFICATION_TYPE = U
NORAD_CAT_ID   = 66281
ELEMENT_SET_NO = 999
REV_AT_EPOCH   = 384
BSTAR          = -.10682998E-2
MEAN_MOTION_DOT = -.59433E-3
MEAN_MOTION_DDOT = 0

CCSDS_OMM_VERS = 2.0
CREATION_DATE  = 
ORIGINATOR     = 

OBJECT_NAME    = STARLINK-35776
OBJECT_ID      = 2025-247T
CENTER_NAME    = EARTH
REF_FRAME      = TEME
TIME_SYSTEM    = UTC
MEAN_ELEMENT_THEORY = SGP/SGP4

EPOCH          = 2025-11-19T06:00:02.000160
MEAN_MOTION    = 15.49319462
ECCENTRICITY   = .00012193
INCLINATION    = 53.1595
RA_OF_ASC_NODE = 348.4075
ARG_OF_PERICENTER = 67.4023
MEAN_ANOMALY   = 115.7961

EPHEMERIS_TYPE = 0
CLASSIFICATION_TYPE = U
NORAD_CAT_ID   = 66282
ELEMENT_SET_NO = 999
REV_AT_EPOCH   = 384
BSTAR          = -.11185817E-2
MEAN_MOTION_DOT = -.62189E-3
MEAN_MOTION_DDOT = 0

CCSDS_OMM_VERS = 2.0
CREATION_DATE  = 
ORIGINATOR     = 

OBJECT_NAME    = STARLINK-35774
OBJECT_ID      = 2025-247U
CENTER_NAME    = EARTH
REF_FRAME      = TEME
TIME_SYSTEM    = UTC
MEAN_ELEMENT_THEORY = SGP/SGP4

EPOCH          = 2025-11-19T06:00:02.000160
MEAN_MOTION    = 15.49318738
ECCENTRICITY   = .00011614
INCLINATION    = 53.1595
RA_OF_ASC_NODE = 348.4039
ARG_OF_PERICENTER = 62.0864
MEAN_ANOMALY   = 123.0263

EPHEMERIS_TYPE = 0
CLASSIFICATION_TYPE = U
NORAD_CAT_ID   = 66283
ELEMENT_SET_NO = 999
REV_AT_EPOCH   = 384
BSTAR          = -.10626547E-2
MEAN_MOTION_DOT = -.59124E-3
MEAN_MOTION_DDOT = 0

CCSDS_OMM_VERS = 2.0
CREATION_DATE  = 
ORIGINATOR     = 

OBJECT_NAME    = STARLINK-35830
OBJECT_ID      = 2025-247V
CENTER_NAME    = EARTH
REF_FRAME      = TEME
TIME_SYSTEM    = UTC
MEAN_ELEMENT_THEORY = SGP/SGP4

EPOCH          = 2025-11-19T06:00:02.000160
MEAN_MOTION    = 15.49319718
ECCENTRICITY   = .00012427
INCLINATION    = 53.1596
RA_OF_ASC_NODE = 348.3995
ARG_OF_PERICENTER = 68.9220
MEAN_ANOMALY   = 118.1072

EPHEMERIS_TYPE = 0
CLASSIFICATION_TYPE = U
NORAD_CAT_ID   = 66284
ELEMENT_SET_NO = 999
REV_AT_EPOCH   = 384
BSTAR          = -.10897338E-2
MEAN_MOTION_DOT = -.6061E-3
MEAN_MOTION_DDOT = 0

CCSDS_OMM_VERS = 2.0
CREATION_DATE  = 
ORIGINATOR     = 

OBJECT_NAME    = STARLINK-35819
OBJECT_ID      = 2025-247W
CENTER_NAME    = EARTH
REF_FRAME      = TEME
TIME_SYSTEM    = UTC
MEAN_ELEMENT_THEORY = SGP/SGP4

EPOCH          = 2025-11-19T06:00:02.000160
MEAN_MOTION    = 15.49321804
ECCENTRICITY   = .00012857
INCLINATION    = 53.1595
RA_OF_ASC_NODE = 348.3956
ARG_OF_PERICENTER = 71.5978
MEAN_ANOMALY   = 117.3491

EPHEMERIS_TYPE = 0
CLASSIFICATION_TYPE = U
NORAD_CAT_ID   = 66285
ELEMENT_SET_NO = 999
REV_AT_EPOCH   = 379
BSTAR          = -.11653091E-2
MEAN_MOTION_DOT = -.64753E-3
MEAN_MOTION_DDOT = 0

